ONEWEB-0320             
1 49190U 21083E   25317.58465703  .00000041  00000+0  70518-4 0  9992
2 49190  87.9222  18.2933 0001818  99.9059 260.2278 13.18687583201561
ONEWEB-0321             
1 49191U 21083F   25317.44559139  .00000065  00000+0  12754-3 0  9998
2 49191  87.9186 317.4599 0002147  89.7107 270.4273 13.20773309208357
ONEWEB-0322             
1 49192U 21083G   25317.42045196  .00000325  00000+0  85444-3 0  9995
2 49192  87.9006   3.1425 0002273 101.8424 258.2960 13.13469802202593
ONEWEB-0324             
1 49193U 21083H   25317.41888524  .00000065  00000+0  13171-3 0  9994
2 49193  87.9220  18.3032 0001794  94.2360 265.8977 13.18687970201566
ONEWEB-0325             
1 49194U 21083J   25317.57392734  .00000054  00000+0  10487-3 0  9990
2 49194  87.9216  18.2911 0001844 101.0723 259.0617 13.18685124201591
ONEWEB-0326             
1 49195U 21083K   25317.58891294  .00000042  00000+0  73482-4 0  9999
2 49195  87.9218  18.2753 0001431 105.2837 254.8454 13.18688355201582
ONEWEB-0327             
1 49196U 21083L   25317.58864098  .00000085  00000+0  18167-3 0  9997
2 49196  87.9209  18.2971 0001533 110.2764 249.8533 13.18688312201601
ONEWEB-0328             
1 49197U 21083M   25317.56264961  .00000043  00000+0  83976-4 0  9994
2 49197  87.9016   3.0582 0001761  93.0869 267.0462 13.13471467202593
